{
  "type": "FeatureCollection",
  "features": [
    {
      "type": "Feature",
      "properties": {
        "norad_id": 25590,
        "name": "COSMOS 2361",
        "group": "musson",
        "lat": -81.48000144265156,
        "lon": -146.5907807356711,
        "alt_km": 975.2984414928933,
        "timestamp": "2025-12-21T14:40:48.186320+00:00",
        "meta_object_name": "COSMOS 2361",
        "meta_object_id": "1998-076A",
        "meta_epoch": "2025-12-21T01:28:32.841408",
        "meta_mean_motion": 13.73218455,
        "meta_eccentricity": 0.00301815,
        "meta_inclination": 82.9341,
        "meta_ra_of_asc_node": 337.9311,
        "meta_arg_of_pericenter": 241.479,
        "meta_mean_anomaly": 185.2761,
        "meta_ephemeris_type": 0,
        "meta_classification_type": "U",
        "meta_norad_cat_id": 25590,
        "meta_element_set_no": 999,
        "meta_rev_at_epoch": 35225,
        "meta_bstar": 3.7397716e-05,
        "meta_mean_motion_dot": 5e-07,
        "meta_mean_motion_ddot": 0,
        "tle_line1": "1 25590U 98076A   25355.06149122  .00000050  00000+0  37398-4 0  9994",
        "tle_line2": "2 25590  82.9341 337.9311 0030181 241.4790 185.2761 13.73218455352253"
      },
      "geometry": {
        "type": "Point",
        "coordinates": [
          -146.5907807356711,
          -81.48000144265156
        ]
      }
    },
    {
      "type": "Feature",
      "properties": {
        "norad_id": 26818,
        "name": "COSMOS 2378",
        "group": "musson",
        "lat": 6.977456273967608,
        "lon": -5.983277538827721,
        "alt_km": 1010.729733516162,
        "timestamp": "2025-12-21T14:40:48.186342+00:00",
        "meta_object_name": "COSMOS 2378",
        "meta_object_id": "2001-023A",
        "meta_epoch": "2025-12-21T02:44:41.103168",
        "meta_mean_motion": 13.74142635,
        "meta_eccentricity": 0.00329167,
        "meta_inclination": 82.9269,
        "meta_ra_of_asc_node": 353.5147,
        "meta_arg_of_pericenter": 181.3472,
        "meta_mean_anomaly": 247.1085,
        "meta_ephemeris_type": 0,
        "meta_classification_type": "U",
        "meta_norad_cat_id": 26818,
        "meta_element_set_no": 999,
        "meta_rev_at_epoch": 23038,
        "meta_bstar": 2.2571159e-05,
        "meta_mean_motion_dot": 3.7e-07,
        "meta_mean_motion_ddot": 0,
        "tle_line1": "1 26818U 01023A   25355.11436462  .00000037  00000+0  22571-4 0  9998",
        "tle_line2": "2 26818  82.9269 353.5147 0032916 181.3472 247.1085 13.74142635230387"
      },
      "geometry": {
        "type": "Point",
        "coordinates": [
          -5.983277538827721,
          6.977456273967608
        ]
      }
    },
    {
      "type": "Feature",
      "properties": {
        "norad_id": 27436,
        "name": "COSMOS 2389",
        "group": "musson",
        "lat": -65.21957339754772,
        "lon": 135.96316437321346,
        "alt_km": 1018.5826455486304,
        "timestamp": "2025-12-21T14:40:48.186355+00:00",
        "meta_object_name": "COSMOS 2389",
        "meta_object_id": "2002-026A",
        "meta_epoch": "2025-12-21T05:18:49.494816",
        "meta_mean_motion": 13.75155469,
        "meta_eccentricity": 0.00472919,
        "meta_inclination": 82.951,
        "meta_ra_of_asc_node": 300.7059,
        "meta_arg_of_pericenter": 37.6336,
        "meta_mean_anomaly": 77.8383,
        "meta_ephemeris_type": 0,
        "meta_classification_type": "U",
        "meta_norad_cat_id": 27436,
        "meta_element_set_no": 999,
        "meta_rev_at_epoch": 18265,
        "meta_bstar": 3.7349024e-05,
        "meta_mean_motion_dot": 5.1e-07,
        "meta_mean_motion_ddot": 0,
        "tle_line1": "1 27436U 02026A   25355.22140619  .00000051  00000+0  37349-4 0  9992",
        "tle_line2": "2 27436  82.9510 300.7059 0047291  37.6336  77.8383 13.75155469182658"
      },
      "geometry": {
        "type": "Point",
        "coordinates": [
          135.96316437321346,
          -65.21957339754772
        ]
      }
    },
    {
      "type": "Feature",
      "properties": {
        "norad_id": 27818,
        "name": "COSMOS 2398",
        "group": "musson",
        "lat": 67.96004910083582,
        "lon": 68.35819087480138,
        "alt_km": 962.1701731123712,
        "timestamp": "2025-12-21T14:40:48.186367+00:00",
        "meta_object_name": "COSMOS 2398",
        "meta_object_id": "2003-023A",
        "meta_epoch": "2025-12-21T04:10:11.059968",
        "meta_mean_motion": 13.72386519,
        "meta_eccentricity": 0.00327168,
        "meta_inclination": 82.9484,
        "meta_ra_of_asc_node": 266.4834,
        "meta_arg_of_pericenter": 89.3246,
        "meta_mean_anomaly": 19.0113,
        "meta_ephemeris_type": 0,
        "meta_classification_type": "U",
        "meta_norad_cat_id": 27818,
        "meta_element_set_no": 999,
        "meta_rev_at_epoch": 12932,
        "meta_bstar": 5.4780084e-05,
        "meta_mean_motion_dot": 6.6e-07,
        "meta_mean_motion_ddot": 0,
        "tle_line1": "1 27818U 03023A   25355.17373912  .00000066  00000+0  54780-4 0  9996",
        "tle_line2": "2 27818  82.9484 266.4834 0032716  89.3246  19.0113 13.72386519129324"
      },
      "geometry": {
        "type": "Point",
        "coordinates": [
          68.35819087480138,
          67.96004910083582
        ]
      }
    },
    {
      "type": "Feature",
      "properties": {
        "norad_id": 28380,
        "name": "COSMOS 2407",
        "group": "musson",
        "lat": 70.74556980448739,
        "lon": -132.95816571487552,
        "alt_km": 948.086766660148,
        "timestamp": "2025-12-21T14:40:48.186378+00:00",
        "meta_object_name": "COSMOS 2407",
        "meta_object_id": "2004-028A",
        "meta_epoch": "2025-12-21T00:54:24.146208",
        "meta_mean_motion": 13.76314621,
        "meta_eccentricity": 0.00399477,
        "meta_inclination": 82.9598,
        "meta_ra_of_asc_node": 206.7488,
        "meta_arg_of_pericenter": 32.2137,
        "meta_mean_anomaly": 77.688,
        "meta_ephemeris_type": 0,
        "meta_classification_type": "U",
        "meta_norad_cat_id": 28380,
        "meta_element_set_no": 999,
        "meta_rev_at_epoch": 7537,
        "meta_bstar": 5.5827191e-05,
        "meta_mean_motion_dot": 7e-07,
        "meta_mean_motion_ddot": 0,
        "tle_line1": "1 28380U 04028A   25355.03777947  .00000070  00000+0  55827-4 0  9996",
        "tle_line2": "2 28380  82.9598 206.7488 0039947  32.2137  77.6880 13.76314621 75371"
      },
      "geometry": {
        "type": "Point",
        "coordinates": [
          -132.95816571487552,
          70.74556980448739
        ]
      }
    },
    {
      "type": "Feature",
      "properties": {
        "norad_id": 28521,
        "name": "COSMOS 2414",
        "group": "musson",
        "lat": -15.471247222347584,
        "lon": 175.98781150056476,
        "alt_km": 960.218503287073,
        "timestamp": "2025-12-21T14:40:48.186389+00:00",
        "meta_object_name": "COSMOS 2414",
        "meta_object_id": "2005-002A",
        "meta_epoch": "2025-12-21T00:54:48.931776",
        "meta_mean_motion": 13.87904051,
        "meta_eccentricity": 0.00412903,
        "meta_inclination": 82.9488,
        "meta_ra_of_asc_node": 178.3848,
        "meta_arg_of_pericenter": 116.6292,
        "meta_mean_anomaly": 243.9111,
        "meta_ephemeris_type": 0,
        "meta_classification_type": "U",
        "meta_norad_cat_id": 28521,
        "meta_element_set_no": 999,
        "meta_rev_at_epoch": 5910,
        "meta_bstar": 4.2018365e-05,
        "meta_mean_motion_dot": 6.6e-07,
        "meta_mean_motion_ddot": 0,
        "tle_line1": "1 28521U 05002A   25355.03806634  .00000066  00000+0  42018-4 0  9995",
        "tle_line2": "2 28521  82.9488 178.3848 0041290 116.6292 243.9111 13.87904051 59105"
      },
      "geometry": {
        "type": "Point",
        "coordinates": [
          175.98781150056476,
          -15.471247222347584
        ]
      }
    },
    {
      "type": "Feature",
      "properties": {
        "norad_id": 32052,
        "name": "COSMOS 2429",
        "group": "musson",
        "lat": 71.10936696314485,
        "lon": -2.1291355085592834,
        "alt_km": 959.4930036064306,
        "timestamp": "2025-12-21T14:40:48.186400+00:00",
        "meta_object_name": "COSMOS 2429",
        "meta_object_id": "2007-038A",
        "meta_epoch": "2025-12-21T05:36:01.117728",
        "meta_mean_motion": 13.75150229,
        "meta_eccentricity": 0.00387574,
        "meta_inclination": 82.9806,
        "meta_ra_of_asc_node": 337.047,
        "meta_arg_of_pericenter": 14.5533,
        "meta_mean_anomaly": 345.673,
        "meta_ephemeris_type": 0,
        "meta_classification_type": "U",
        "meta_norad_cat_id": 32052,
        "meta_element_set_no": 999,
        "meta_rev_at_epoch": 91719,
        "meta_bstar": 3.8596986e-05,
        "meta_mean_motion_dot": 5.2e-07,
        "meta_mean_motion_ddot": 0,
        "tle_line1": "1 32052U 07038A   25355.23334627  .00000052  00000+0  38597-4 0  9992",
        "tle_line2": "2 32052  82.9806 337.0470 0038757  14.5533 345.6730 13.75150229917192"
      },
      "geometry": {
        "type": "Point",
        "coordinates": [
          -2.1291355085592834,
          71.10936696314485
        ]
      }
    },
    {
      "type": "Feature",
      "properties": {
        "norad_id": 35635,
        "name": "COSMOS 2454",
        "group": "musson",
        "lat": 77.8771762609398,
        "lon": -53.22493662101487,
        "alt_km": 912.1086279785077,
        "timestamp": "2025-12-21T14:40:48.186410+00:00",
        "meta_object_name": "COSMOS 2454",
        "meta_object_id": "2009-039A",
        "meta_epoch": "2025-12-21T00:58:54.605856",
        "meta_mean_motion": 13.89929585,
        "meta_eccentricity": 0.00202009,
        "meta_inclination": 82.9557,
        "meta_ra_of_asc_node": 162.3521,
        "meta_arg_of_pericenter": 51.4614,
        "meta_mean_anomaly": 73.9313,
        "meta_ephemeris_type": 0,
        "meta_classification_type": "U",
        "meta_norad_cat_id": 35635,
        "meta_element_set_no": 999,
        "meta_rev_at_epoch": 83265,
        "meta_bstar": 3.0101294e-05,
        "meta_mean_motion_dot": 5.3e-07,
        "meta_mean_motion_ddot": 0,
        "tle_line1": "1 35635U 09039A   25355.04090979  .00000053  00000+0  30101-4 0  9997",
        "tle_line2": "2 35635  82.9557 162.3521 0020200  51.4614  73.9313 13.89929585832654"
      },
      "geometry": {
        "type": "Point",
        "coordinates": [
          -53.22493662101487,
          77.8771762609398
        ]
      }
    },
    {
      "type": "Feature",
      "properties": {
        "norad_id": 36519,
        "name": "COSMOS 2463",
        "group": "musson",
        "lat": -80.1168830638487,
        "lon": -24.977694816201367,
        "alt_km": 976.2066782250604,
        "timestamp": "2025-12-21T14:40:48.186421+00:00",
        "meta_object_name": "COSMOS 2463",
        "meta_object_id": "2010-017A",
        "meta_epoch": "2025-12-21T03:07:08.285664",
        "meta_mean_motion": 13.7164984,
        "meta_eccentricity": 0.00347484,
        "meta_inclination": 82.9604,
        "meta_ra_of_asc_node": 20.5467,
        "meta_arg_of_pericenter": 263.9037,
        "meta_mean_anomaly": 155.6361,
        "meta_ephemeris_type": 0,
        "meta_classification_type": "U",
        "meta_norad_cat_id": 36519,
        "meta_element_set_no": 999,
        "meta_rev_at_epoch": 78352,
        "meta_bstar": 3.9237722e-05,
        "meta_mean_motion_dot": 5e-07,
        "meta_mean_motion_ddot": 0,
        "tle_line1": "1 36519U 10017A   25355.12995701  .00000050  00000+0  39238-4 0  9990",
        "tle_line2": "2 36519  82.9604  20.5467 0034748 263.9037 155.6361 13.71649840783520"
      },
      "geometry": {
        "type": "Point",
        "coordinates": [
          -24.977694816201367,
          -80.1168830638487
        ]
      }
    }
  ]
}